[{"OBJECT_NAME":"IRIDIUM 33 DEB","OBJECT_ID":"1997-051CN","EPOCH":"2023-09-15T07:22:19.315200","MEAN_MOTION":14.56035302,"ECCENTRICITY":0.0007936,"INCLINATION":86.3912,"RA_OF_ASC_NODE":12.0912,"ARG_OF_PERICENTER":256.7486,"MEAN_ANOMALY":159.4197,"EPHEMERIS_TYPE":0,"CLASSIFICATION_TYPE":"U","NORAD_CAT_ID":34079,"ELEMENT_SET_NO":999,"REV_AT_EPOCH":76951,"BSTAR":0.00179,"MEAN_MOTION_DOT":7.905e-5,"MEAN_MOTION_DDOT":0},{"OBJECT_NAME":"IRIDIUM 33 DEB","OBJECT_ID":"1997-051CV","EPOCH":"2023-09-15T09:57:46.557216","MEAN_MOTION":14.56426658,"ECCENTRICITY":0.0014817,"INCLINATION":86.3781,"RA_OF_ASC_NODE":36.6968,"ARG_OF_PERICENTER":278.961,"MEAN_ANOMALY":135.574,"EPHEMERIS_TYPE":0,"CLASSIFICATION_TYPE":"U","NORAD_CAT_ID":34086,"ELEMENT_SET_NO":999,"REV_AT_EPOCH":76540,"BSTAR":0.0048308,"MEAN_MOTION_DOT":0.00021544,"MEAN_MOTION_DDOT":0},{"OBJECT_NAME":"IRIDIUM 33 DEB","OBJECT_ID":"1997-051CX","EPOCH":"2023-09-15T10:26:48.381216","MEAN_MOTION":14.53587404,"ECCENTRICITY":0.0010908,"INCLINATION":86.4017,"RA_OF_ASC_NODE":33.51,"ARG_OF_PERICENTER":177.6822,"MEAN_ANOMALY":243.6624,"EPHEMERIS_TYPE":0,"CLASSIFICATION_TYPE":"U","NORAD_CAT_ID":34088,"ELEMENT_SET_NO":999,"REV_AT_EPOCH":76710,"BSTAR":0.0028508,"MEAN_MOTION_DOT":0.00011947,"MEAN_MOTION_DDOT":0},{"OBJECT_NAME":"IRIDIUM 33 DEB","OBJECT_ID":"1997-051DA","EPOCH":"2023-09-15T10:20:09.852576","MEAN_MOTION":14.39920273,"ECCENTRICITY":0.0071486,"INCLINATION":86.3588,"RA_OF_ASC_NODE":66.2073,"ARG_OF_PERICENTER":207.9895,"MEAN_ANOMALY":151.7453,"EPHEMERIS_TYPE":0,"CLASSIFICATION_TYPE":"U","NORAD_CAT_ID":34091,"ELEMENT_SET_NO":999,"REV_AT_EPOCH":75934,"BSTAR":0.0045957,"MEAN_MOTION_DOT":0.00014926,"MEAN_MOTION_DDOT":0},{"OBJECT_NAME":"IRIDIUM 33 DEB","OBJECT_ID":"1997-051DG","EPOCH":"2023-09-15T10:56:35.975616","MEAN_MOTION":14.24292659,"ECCENTRICITY":0.009494,"INCLINATION":86.2124,"RA_OF_ASC_NODE":359.5968,"ARG_OF_PERICENTER":126.5474,"MEAN_ANOMALY":234.4503,"EPHEMERIS_TYPE":0,"CLASSIFICATION_TYPE":"U","NORAD_CAT_ID":34097,"ELEMENT_SET_NO":999,"REV_AT_EPOCH":75415,"BSTAR":0.0014935,"MEAN_MOTION_DOT":3.631e-5,"MEAN_MOTION_DDOT":0},{"OBJECT_NAME":"IRIDIUM 33 DEB","OBJECT_ID":"1997-051DJ","EPOCH":"2023-09-15T04:44:32.094816","MEAN_MOTION":15.54968657,"ECCENTRICITY":0.001825,"INCLINATION":86.3233,"RA_OF_ASC_NODE":330.7598,"ARG_OF_PERICENTER":269.046,"MEAN_ANOMALY":90.8711,"EPHEMERIS_TYPE":0,"CLASSIFICATION_TYPE":"U","NORAD_CAT_ID":34099,"ELEMENT_SET_NO":999,"REV_AT_EPOCH":77314,"BSTAR":0.021926,"MEAN_MOTION_DOT":0.01636438,"MEAN_MOTION_DDOT":0},{"OBJECT_NAME":"IRIDIUM 33 DEB","OBJECT_ID":"1997-051DL","EPOCH":"2023-09-15T12:11:53.951712","MEAN_MOTION":14.76398989,"ECCENTRICITY":0.0049043,"INCLINATION":86.3645,"RA_OF_ASC_NODE":70.3433,"ARG_OF_PERICENTER":183.7014,"MEAN_ANOMALY":176.385,"EPHEMERIS_TYPE":0,"CLASSIFICATION_TYPE":"U","NORAD_CAT_ID":34101,"ELEMENT_SET_NO":999,"REV_AT_EPOCH":75951,"BSTAR":0.010468,"MEAN_MOTION_DOT":0.00074899,"MEAN_MOTION_DDOT":0},{"OBJECT_NAME":"IRIDIUM 33 DEB","OBJECT_ID":"1997-051DM","EPOCH":"2023-09-15T13:20:37.244832","MEAN_MOTION":14.41640395,"ECCENTRICITY":0.0097393,"INCLINATION":86.3656,"RA_OF_ASC_NODE":102.8023,"ARG_OF_PERICENTER":58.938,"MEAN_ANOMALY":1.78,"EPHEMERIS_TYPE":0,"CLASSIFICATION_TYPE":"U","NORAD_CAT_ID":34102,"ELEMENT_SET_NO":999,"REV_AT_EPOCH":75497,"BSTAR":0.0037517,"MEAN_MOTION_DOT":0.0001296,"MEAN_MOTION_DDOT":0},{"OBJECT_NAME":"IRIDIUM 33 DEB","OBJECT_ID":"1997-051DN","EPOCH":"2023-09-15T16:45:45.209952","MEAN_MOTION":14.93346894,"ECCENTRICITY":0.0023225,"INCLINATION":86.3267,"RA_OF_ASC_NODE":335.3198,"ARG_OF_PERICENTER":217.3448,"MEAN_ANOMALY":259.4709,"EPHEMERIS_TYPE":0,"CLASSIFICATION_TYPE":"U","NORAD_CAT_ID":34103,"ELEMENT_SET_NO":999,"REV_AT_EPOCH":77090,"BSTAR":0.0063679,"MEAN_MOTION_DOT":0.00067677,"MEAN_MOTION_DDOT":0},{"OBJECT_NAME":"IRIDIUM 33 DEB","OBJECT_ID":"1997-051DR","EPOCH":"2023-09-15T06:38:46.903200","MEAN_MOTION":14.63785244,"ECCENTRICITY":0.0013727,"INCLINATION":86.3626,"RA_OF_ASC_NODE":348.4557,"ARG_OF_PERICENTER":218.1625,"MEAN_ANOMALY":195.5599,"EPHEMERIS_TYPE":0,"CLASSIFICATION_TYPE":"U","NORAD_CAT_ID":34106,"ELEMENT_SET_NO":999,"REV_AT_EPOCH":77009,"BSTAR":0.0029417,"MEAN_MOTION_DOT":0.000154,"MEAN_MOTION_DDOT":0},{"OBJECT_NAME":"IRIDIUM 33 DEB","OBJECT_ID":"1997-051DS","EPOCH":"2023-09-15T08:15:53.586144","MEAN_MOTION":14.66820561,"ECCENTRICITY":0.0010097,"INCLINATION":86.3777,"RA_OF_ASC_NODE":356.9514,"ARG_OF_PERICENTER":242.3723,"MEAN_ANOMALY":183.7509,"EPHEMERIS_TYPE":0,"CLASSIFICATION_TYPE":"U","NORAD_CAT_ID":34107,"ELEMENT_SET_NO":999,"REV_AT_EPOCH":77077,"BSTAR":0.0040855,"MEAN_MOTION_DOT":0.00022886,"MEAN_MOTION_DDOT":0},{"OBJECT_NAME":"IRIDIUM 33 DEB","OBJECT_ID":"1997-051DW","EPOCH":"2023-09-15T18:35:28.833792","MEAN_MOTION":15.11488752,"ECCENTRICITY":0.0007632,"INCLINATION":86.3751,"RA_OF_ASC_NODE":343.7607,"ARG_OF_PERICENTER":232.131,"MEAN_ANOMALY":254.7261,"EPHEMERIS_TYPE":0,"CLASSIFICATION_TYPE":"U","NORAD_CAT_ID":34143,"ELEMENT_SET_NO":999,"REV_AT_EPOCH":77319,"BSTAR":0.0061074,"MEAN_MOTION_DOT":0.00104781,"MEAN_MOTION_DDOT":0},{"OBJECT_NAME":"IRIDIUM 33 DEB","OBJECT_ID":"1997-051DY","EPOCH":"2023-09-15T05:59:45.446784","MEAN_MOTION":14.32613372,"ECCENTRICITY":0.00602,"INCLINATION":86.2208,"RA_OF_ASC_NODE":334.3166,"ARG_OF_PERICENTER":253.0397,"MEAN_ANOMALY":106.4194,"EPHEMERIS_TYPE":0,"CLASSIFICATION_TYPE":"U","NORAD_CAT_ID":34145,"ELEMENT_SET_NO":999,"REV_AT_EPOCH":75865,"BSTAR":0.0013621,"MEAN_MOTION_DOT":3.791e-5,"MEAN_MOTION_DDOT":0},{"OBJECT_NAME":"IRIDIUM 33 DEB","OBJECT_ID":"1997-051DZ","EPOCH":"2023-09-15T11:13:03.341856","MEAN_MOTION":14.39855939,"ECCENTRICITY":0.003527,"INCLINATION":86.2931,"RA_OF_ASC_NODE":348.7332,"ARG_OF_PERICENTER":58.6889,"MEAN_ANOMALY":63.3016,"EPHEMERIS_TYPE":0,"CLASSIFICATION_TYPE":"U","NORAD_CAT_ID":34146,"ELEMENT_SET_NO":999,"REV_AT_EPOCH":76280,"BSTAR":0.00095639,"MEAN_MOTION_DOT":3.043e-5,"MEAN_MOTION_DDOT":0},{"OBJECT_NAME":"IRIDIUM 33 DEB","OBJECT_ID":"1997-051EN","EPOCH":"2023-09-15T10:11:51.648576","MEAN_MOTION":14.34642781,"ECCENTRICITY":0.0032049,"INCLINATION":86.354,"RA_OF_ASC_NODE":36.2922,"ARG_OF_PERICENTER":90.0845,"MEAN_ANOMALY":270.4024,"EPHEMERIS_TYPE":0,"CLASSIFICATION_TYPE":"U","NORAD_CAT_ID":34159,"ELEMENT_SET_NO":999,"REV_AT_EPOCH":76196,"BSTAR":0.00069622,"MEAN_MOTION_DOT":1.998e-5,"MEAN_MOTION_DDOT":0},{"OBJECT_NAME":"IRIDIUM 33 DEB","OBJECT_ID":"1997-051ES","EPOCH":"2023-09-15T13:38:31.254720","MEAN_MOTION":14.41418198,"ECCENTRICITY":0.0020943,"INCLINATION":86.3355,"RA_OF_ASC_NODE":356.9212,"ARG_OF_PERICENTER":334.4733,"MEAN_ANOMALY":88.0282,"EPHEMERIS_TYPE":0,"CLASSIFICATION_TYPE":"U","NORAD_CAT_ID":34350,"ELEMENT_SET_NO":999,"REV_AT_EPOCH":76476,"BSTAR":0.00047988,"MEAN_MOTION_DOT":1.578e-5,"MEAN_MOTION_DDOT":0}]
