IRIDIUM 33 DEB          
1 34079U 97051CN  23258.30716800  .00007905  00000+0  17900-2 0  9999
2 34079  86.3912  12.0912 0007936 256.7486 159.4197 14.56035302769515
IRIDIUM 33 DEB          
1 34086U 97051CV  23258.41512219  .00021544  00000+0  48308-2 0  9998
2 34086  86.3781  36.6968 0014817 278.9610 135.5740 14.56426658765402
IRIDIUM 33 DEB          
1 34088U 97051CX  23258.43528219  .00011947  00000+0  28508-2 0  9995
2 34088  86.4017  33.5100 0010908 177.6822 243.6624 14.53587404767103
IRIDIUM 33 DEB          
1 34091U 97051DA  23258.43066959  .00014926  00000+0  45957-2 0  9994
2 34091  86.3588  66.2073 0071486 207.9895 151.7453 14.39920273759341
IRIDIUM 33 DEB          
1 34097U 97051DG  23258.45597194  .00003631  00000+0  14935-2 0  9995
2 34097  86.2124 359.5968 0094940 126.5474 234.4503 14.24292659754155
IRIDIUM 33 DEB          
1 34099U 97051DJ  23258.19759369  .01636438  00000+0  21926-1 0  9997
2 34099  86.3233 330.7598 0018250 269.0460  90.8711 15.54968657773144
IRIDIUM 33 DEB          
1 34101U 97051DL  23258.50826333  .00074899  00000+0  10468-1 0  9997
2 34101  86.3645  70.3433 0049043 183.7014 176.3850 14.76398989759518
IRIDIUM 33 DEB          
1 34102U 97051DM  23258.55598663  .00012960  00000+0  37517-2 0  9991
2 34102  86.3656 102.8023 0097393  58.9380   1.7800 14.41640395754971
IRIDIUM 33 DEB          
1 34103U 97051DN  23258.69843993  .00067677  00000+0  63679-2 0  9999
2 34103  86.3267 335.3198 0023225 217.3448 259.4709 14.93346894770900
IRIDIUM 33 DEB          
1 34106U 97051DR  23258.27693175  .00015400  00000+0  29417-2 0  9990
2 34106  86.3626 348.4557 0013727 218.1625 195.5599 14.63785244770098
IRIDIUM 33 DEB          
1 34107U 97051DS  23258.34437021  .00022886  00000+0  40855-2 0  9990
2 34107  86.3777 356.9514 0010097 242.3723 183.7509 14.66820561770778
IRIDIUM 33 DEB          
1 34143U 97051DW  23258.77463928  .00104781  00000+0  61074-2 0  9993
2 34143  86.3751 343.7607 0007632 232.1310 254.7261 15.11488752773193
IRIDIUM 33 DEB          
1 34145U 97051DY  23258.24983156  .00003791  00000+0  13621-2 0  9991
2 34145  86.2208 334.3166 0060200 253.0397 106.4194 14.32613372758656
IRIDIUM 33 DEB          
1 34146U 97051DZ  23258.46739979  .00003043  00000+0  95639-3 0  9998
2 34146  86.2931 348.7332 0035270  58.6889  63.3016 14.39855939762808
IRIDIUM 33 DEB          
1 34159U 97051EN  23258.42490334  .00001998  00000+0  69622-3 0  9997
2 34159  86.3540  36.2922 0032049  90.0845 270.4024 14.34642781761966
IRIDIUM 33 DEB          
1 34350U 97051ES  23258.56841730  .00001578  00000+0  47988-3 0  9990
2 34350  86.3355 356.9212 0020943 334.4733  88.0282 14.41418198764769
